{
    "links": {
        "self": "http://www.neowsapp.com/rest/v1/neo/3602505?api_key=iIulBulltgU6a56xZRHN4H3l9WmuAYTsLGpBGhQ2"
    },
    "id": "3602505",
    "neo_reference_id": "3602505",
    "name": "(2012 GD2)",
    "designation": "2012 GD2",
    "nasa_jpl_url": "http://ssd.jpl.nasa.gov/sbdb.cgi?sstr=3602505",
    "absolute_magnitude_h": 22.8,
    "estimated_diameter": {
        "kilometers": {
            "estimated_diameter_min": 0.0732073989,
            "estimated_diameter_max": 0.1636967205
        },
        "meters": {
            "estimated_diameter_min": 73.2073989347,
            "estimated_diameter_max": 163.696720474
        },
        "miles": {
            "estimated_diameter_min": 0.0454889547,
            "estimated_diameter_max": 0.1017163949
        },
        "feet": {
            "estimated_diameter_min": 240.181762721,
            "estimated_diameter_max": 537.0627483999
        }
    },
    "is_potentially_hazardous_asteroid": false,
    "close_approach_data": [
        {
            "close_approach_date": "2007-04-06",
            "close_approach_date_full": "2007-Apr-06 17:44",
            "epoch_date_close_approach": 1175881440000,
            "relative_velocity": {
                "kilometers_per_second": "20.5445372238",
                "kilometers_per_hour": "73960.334005649",
                "miles_per_hour": "45956.075315899"
            },
            "miss_distance": {
                "astronomical": "0.1647594348",
                "lunar": "64.0914201372",
                "kilometers": "24647660.508483876",
                "miles": "15315346.0579384488"
            },
            "orbiting_body": "Earth"
        },
        {
            "close_approach_date": "2012-04-12",
            "close_approach_date_full": "2012-Apr-12 00:41",
            "epoch_date_close_approach": 1334191260000,
            "relative_velocity": {
                "kilometers_per_second": "19.5024834161",
                "kilometers_per_hour": "70208.94029801",
                "miles_per_hour": "43625.1051535052"
            },
            "miss_distance": {
                "astronomical": "0.0463272305",
                "lunar": "18.0212926645",
                "kilometers": "6930455.005799035",
                "miles": "4306385.050875283"
            },
            "orbiting_body": "Earth"
        },
        {
            "close_approach_date": "2017-04-18",
            "close_approach_date_full": "2017-Apr-18 07:12",
            "epoch_date_close_approach": 1492499520000,
            "relative_velocity": {
                "kilometers_per_second": "19.4430056475",
                "kilometers_per_hour": "69994.8203310238",
                "miles_per_hour": "43492.0593329075"
            },
            "miss_distance": {
                "astronomical": "0.1711282271",
                "lunar": "66.5688803419",
                "kilometers": "25600418.271036277",
                "miles": "15907362.2794315426"
            },
            "orbiting_body": "Earth"
        }
    ],
    "orbital_data": {
        "orbit_id": "9",
        "orbit_determination_date": "2017-04-06 08:50:11",
        "first_observation_date": "2012-04-12",
        "last_observation_date": "2012-04-17",
        "data_arc_in_days": 5,
        "observations_used": 85,
        "orbit_uncertainty": "8",
        "minimum_orbit_intersection": ".0462018",
        "jupiter_tisserand_invariant": "4.503",
        "epoch_osculation": "2456030.5",
        "eccentricity": ".2630155515444108",
        "semi_major_axis": "1.410745315956109",
        "inclination": "35.87381917884632",
        "ascending_node_longitude": "201.7369297002902",
        "orbital_period": "612.0280859024255",
        "perihelion_distance": "1.039697358591219",
        "perihelion_argument": "16.62319444788967",
        "aphelion_distance": "1.781793273320999",
        "perihelion_time": "2456045.074612741030",
        "mean_anomaly": "351.4270918155098",
        "mean_motion": ".5882083000638538",
        "equinox": "J2000",
        "orbit_class": {
            "orbit_class_type": "AMO",
            "orbit_class_description": "Near-Earth asteroid orbits similar to that of 1221 Amor",
            "orbit_class_range": "1.017 AU < q (perihelion) < 1.3 AU"
        }
    },
    "is_sentry_object": false
}